{
    "links": {
        "self": "http://www.neowsapp.com/rest/v1/neo/3621643?api_key=iIulBulltgU6a56xZRHN4H3l9WmuAYTsLGpBGhQ2"
    },
    "id": "3621643",
    "neo_reference_id": "3621643",
    "name": "(2012 YS1)",
    "designation": "2012 YS1",
    "nasa_jpl_url": "http://ssd.jpl.nasa.gov/sbdb.cgi?sstr=3621643",
    "absolute_magnitude_h": 25.0,
    "estimated_diameter": {
        "kilometers": {
            "estimated_diameter_min": 0.02658,
            "estimated_diameter_max": 0.0594346868
        },
        "meters": {
            "estimated_diameter_min": 26.58,
            "estimated_diameter_max": 59.4346868419
        },
        "miles": {
            "estimated_diameter_min": 0.0165160412,
            "estimated_diameter_max": 0.0369309908
        },
        "feet": {
            "estimated_diameter_min": 87.2047272,
            "estimated_diameter_max": 194.9956979785
        }
    },
    "is_potentially_hazardous_asteroid": false,
    "close_approach_data": [
        {
            "close_approach_date": "2012-12-24",
            "close_approach_date_full": "2012-Dec-24 11:43",
            "epoch_date_close_approach": 1356349380000,
            "relative_velocity": {
                "kilometers_per_second": "17.4135717092",
                "kilometers_per_hour": "62688.8581532662",
                "miles_per_hour": "38952.4185564003"
            },
            "miss_distance": {
                "astronomical": "0.0209446105",
                "lunar": "8.1474534845",
                "kilometers": "3133269.118779635",
                "miles": "1946923.150383563"
            },
            "orbiting_body": "Earth"
        }
    ],
    "orbital_data": {
        "orbit_id": "4",
        "orbit_determination_date": "2017-04-06 08:47:32",
        "first_observation_date": "2012-12-20",
        "last_observation_date": "2012-12-21",
        "data_arc_in_days": 1,
        "observations_used": 26,
        "orbit_uncertainty": "8",
        "minimum_orbit_intersection": ".00852802",
        "jupiter_tisserand_invariant": "3.755",
        "epoch_osculation": "2456282.5",
        "eccentricity": ".6122650513397397",
        "semi_major_axis": "1.844398240204605",
        "inclination": "7.220842987695587",
        "ascending_node_longitude": "90.42046579293681",
        "orbital_period": "914.9144264277347",
        "perihelion_distance": ".7151376569748068",
        "perihelion_argument": "77.70606227084511",
        "aphelion_distance": "2.973658823434403",
        "perihelion_time": "2456331.185902797386",
        "mean_anomaly": "340.8430990912533",
        "mean_motion": ".39347942233856",
        "equinox": "J2000",
        "orbit_class": {
            "orbit_class_type": "APO",
            "orbit_class_description": "Near-Earth asteroid orbits which cross the Earth’s orbit similar to that of 1862 Apollo",
            "orbit_class_range": "a (semi-major axis) > 1.0 AU; q (perihelion) < 1.017 AU"
        }
    },
    "is_sentry_object": false
}